0 BREEZE-M R/B
1 38653U 12036B   13280.75831168 -.00000012  00000-0  00000+0 0  1580
2 38653 022.7606 124.7398 6097303 161.7595 236.7904 02.17152130  9873
0 BREEZE-M R/B
1 38653U 12036B   13287.65735726  .00000016  00000-0  00000+0 0  1605
2 38653 022.7809 123.4033 6095868 164.0979 230.0777 02.17152651 10028
0 BREEZE-M R/B
1 38653U 12036B   13289.95699739 -.00000013  00000-0  00000+0 0  1612
2 38653 022.7875 122.9582 6095357 164.8768 227.8121 02.17152619 10077
0 BREEZE-M R/B
1 38653U 12036B   13292.71653233 -.00000062  00000-0  00000+0 0  1624
2 38653 022.7955 122.4245 6094789 165.8103 225.0708 02.17152670 10134
